[{"OBJECT_NAME":"FLOCK 4G-3","OBJECT_ID":"2025-009AG","EPOCH":"2026-03-09T19:14:30.392160","MEAN_MOTION":15.2717931,"ECCENTRICITY":0.00013196,"INCLINATION":97.4062,"RA_OF_ASC_NODE":151.4068,"ARG_OF_PERICENTER":293.2042,"MEAN_ANOMALY":66.9058,"EPHEMERIS_TYPE":0,"CLASSIFICATION_TYPE":"U","NORAD_CAT_ID":62639,"ELEMENT_SET_NO":999,"REV_AT_EPOCH":6372,"BSTAR":0.0004338875,"MEAN_MOTION_DOT":0.00011494,"MEAN_MOTION_DDOT":0},{"OBJECT_NAME":"ATLAS 28E DEB","OBJECT_ID":"1990-031H","EPOCH":"2026-03-09T12:57:08.289792","MEAN_MOTION":15.28884159,"ECCENTRICITY":0.00278203,"INCLINATION":89.4108,"RA_OF_ASC_NODE":276.7439,"ARG_OF_PERICENTER":214.1843,"MEAN_ANOMALY":145.7617,"EPHEMERIS_TYPE":0,"CLASSIFICATION_TYPE":"U","NORAD_CAT_ID":20576,"ELEMENT_SET_NO":999,"REV_AT_EPOCH":37205,"BSTAR":0.00056600809,"MEAN_MOTION_DOT":0.00016095,"MEAN_MOTION_DDOT":0}]
